{"type":"FeatureCollection","features":[{"type":"Feature","properties":{"name":"Bayview Hunters Point","label":[37.73102,-122.38355]},"geometry":{"type":"Polygon","coordinates":[[[-122.38129,37.71878],[-122.37971,37.71835],[-122.37613,37.71611],[-122.37734,37.71436],[-122.3789,37.71309],[-122.38005,37.7115],[-122.38011,37.71079],[-122.37899,37.70999],[-122.37795,37.70861],[-122.37686,37.7089],[-122.37639,37.70964],[-122.37598,37.70969],[-122.37451,37.70897],[-122.37454,37.70836],[-122.37941,37.70842],[-122.38453,37.7093],[-122.38601,37.71],[-122.38679,37.70977],[-122.38808,37.70867],[-122.38971,37.70962],[-122.39055,37.70919],[-122.39149,37.7097],[-122.39251,37.70888],[-122.39266,37.70842],[-122.40543,37.70838],[-122.40482,37.70975],[-122.40311,37.712],[-122.40116,37.71273],[-122.39965,37.71425],[-122.3985,37.71654],[-122.39921,37.71999],[-122.40118,37.72459],[-122.40221,37.7281],[-122.40466,37.73295],[-122.40655,37.73572],[-122.40701,37.738],[-122.40684,37.74085],[-122.40459,37.74413],[-122.40419,37.74524],[-122.40432,37.74593],[-122.40356,37.74776],[-122.40405,37.74859],[-122.40378,37.74943],[-122.40286,37.74954],[-122.40273,37.7505],[-122.39641,37.75118],[-122.39651,37.75231],[-122.38171,37.75319],[-122.37988,37.75289],[-122.37996,37.75203],[-122.37609,37.75225],[-122.37577,37.74871],[-122.38491,37.74814],[-122.38474,37.7483],[-122.38734,37.74759],[-122.38777,37.74785],[-122.39041,37.74771],[-122.39293,37.74855],[-122.39298,37.74759],[-122.39049,37.74669],[-122.38711,37.74711],[-122.37966,37.74721],[-122.37961,37.74698],[-122.37636,37.74716],[-122.37528,37.74694],[-122.37477,37.74643],[-122.37494,37.74578],[-122.37415,37.745],[-122.37276,37.74551],[-122.36763,37.74013],[-122.36827,37.73983],[-122.37397,37.73956],[-122.37353,37.73873],[-122.37256,37.73828],[-122.36739,37.73823],[-122.37127,37.73707],[-122.37292,37.73704],[-122.37557,37.73836],[-122.37645,37.73834],[-122.3767,37.73814],[-122.37533,37.73792],[-122.37489,37.73733],[-122.37524,37.73623],[-122.37597,37.73582],[-122.37587,37.73505],[-122.37532,37.73539],[-122.37488,37.73498],[-122.37515,37.73456],[-122.37487,37.73417],[-122.37562,37.73275],[-122.3752,37.73296],[-122.37461,37.73288],[-122.37482,37.73253],[-122.37418,37.73259],[-122.37191,37.73421],[-122.36921,37.73199],[-122.36871,37.73196],[-122.36837,37.73229],[-122.36745,37.73195],[-122.36668,37.73221],[-122.36526,37.7338],[-122.36654,37.73218],[-122.36533,37.733],[-122.36619,37.73192],[-122.36501,37.73283],[-122.36581,37.73172],[-122.36483,37.73254],[-122.36511,37.73207],[-122.36191,37.73009],[-122.36088,37.72991],[-122.36074,37.73023],[-122.35991,37.73033],[-122.35879,37.72978],[-122.36228,37.72852],[-122.35773,37.72944],[-122.35748,37.72925],[-122.35788,37.72895],[-122.3604,37.72818],[-122.35697,37.72871],[-122.3577,37.72628],[-122.35801,37.72604],[-122.36164,37.72522],[-122.36126,37.72417],[-122.35796,37.72494],[-122.35784,37.72462],[-122.36152,37.72377],[-122.3649,37.7257],[-122.36532,37.72554],[-122.36237,37.72368],[-122.36275,37.72326],[-122.35998,37.72163],[-122.36024,37.72136],[-122.363,37.72298],[-122.36381,37.7221],[-122.35913,37.71933],[-122.35998,37.71848],[-122.36271,37.72007],[-122.36366,37.71905],[-122.35858,37.71588],[-122.36265,37.71802],[-122.36387,37.71673],[-122.36004,37.7143],[-122.36397,37.71658],[-122.36524,37.7153],[-122.36109,37.71285],[-122.36117,37.71275],[-122.36539,37.71524],[-122.36441,37.71631],[-122.36463,37.71647],[-122.36555,37.716],[-122.36776,37.71767],[-122.36953,37.71785],[-122.3705,37.71872],[-122.37223,37.71904],[-122.374,37.71891],[-122.37447,37.71977],[-122.37556,37.72045],[-122.37595,37.72271],[-122.37708,37.72424],[-122.37894,37.7238],[-122.38001,37.72223],[-122.38078,37.72176],[-122.38256,37.7224],[-122.38504,37.72411],[-122.38624,37.72447],[-122.38692,37.72428],[-122.38288,37.72194],[-122.38274,37.72155],[-122.38337,37.72061],[-122.38325,37.72023],[-122.38129,37.71878]]]}},{"type":"Feature","properties":{"name":"Bernal Heights","label":[37.73964,-122.4156]},"geometry":{"type":"Polygon","coordinates":[[[-122.41439,37.73242],[-122.41594,37.73207],[-122.42556,37.73158],[-122.42804,37.73202],[-122.42616,37.73397],[-122.42857,37.73508],[-122.4256,37.73732],[-122.42472,37.73843],[-122.42229,37.74518],[-122.42257,37.748],[-122.40808,37.74841],[-122.40378,37.74943],[-122.40405,37.74859],[-122.40356,37.74776],[-122.40432,37.74593],[-122.40419,37.74524],[-122.40459,37.74413],[-122.40684,37.74085],[-122.40701,37.738],[-122.40822,37.73761],[-122.40849,37.73629],[-122.4095,37.73504],[-122.41439,37.73242]]]}},{"type":"Feature","properties":{"name":"Castro/Upper Market","label":[37.76284,-122.43565]},"geometry":{"type":"Polygon","coordinates":[[[-122.4378,37.75589],[-122.43777,37.75554],[-122.43886,37.75543],[-122.43917,37.75903],[-122.44218,37.75894],[-122.44222,37.75664],[-122.44319,37.75604],[-122.44481,37.75725],[-122.44511,37.75696],[-122.44441,37.75657],[-122.44449,37.75635],[-122.44503,37.75661],[-122.44695,37.75655],[-122.44792,37.75759],[-122.4464,37.75886],[-122.44641,37.76109],[-122.44678,37.76178],[-122.44638,37.76182],[-122.44639,37.76223],[-122.44569,37.76235],[-122.44466,37.76333],[-122.44401,37.76502],[-122.44257,37.76593],[-122.44194,37.76595],[-122.4406,37.76696],[-122.44014,37.76776],[-122.43882,37.7684],[-122.43834,37.76901],[-122.4264,37.7696],[-122.42695,37.76918],[-122.42659,37.76788],[-122.42553,37.75664],[-122.4378,37.75589]]]}},{"type":"Feature","properties":{"name":"Chinatown","label":[37.79736,-122.40894]},"geometry":{"type":"Polygon","coordinates":[[[-122.40917,37.79204],[-122.40972,37.79474],[-122.41136,37.79453],[-122.41291,37.80218],[-122.40551,37.79707],[-122.40086,37.79765],[-122.40015,37.79413],[-122.40461,37.79356],[-122.40442,37.79264],[-122.40917,37.79204]]]}},{"type":"Feature","properties":{"name":"Excelsior","label":[37.72025,-122.43176]},"geometry":{"type":"Polygon","coordinates":[[[-122.45431,37.70825],[-122.44893,37.71007],[-122.44553,37.71189],[-122.4419,37.71531],[-122.43281,37.72732],[-122.42804,37.73202],[-122.42455,37.73155],[-122.41924,37.73206],[-122.41949,37.72905],[-122.41686,37.7288],[-122.41519,37.72922],[-122.41446,37.72746],[-122.4184,37.72642],[-122.41791,37.72522],[-122.42381,37.72369],[-122.42477,37.72217],[-122.42434,37.72195],[-122.42639,37.71856],[-122.42614,37.71843],[-122.42731,37.71507],[-122.42555,37.71452],[-122.42666,37.71144],[-122.42765,37.71162],[-122.42504,37.71054],[-122.42333,37.70931],[-122.42376,37.70834],[-122.42535,37.70862],[-122.42541,37.70833],[-122.45431,37.70825]]]}},{"type":"Feature","properties":{"name":"Financial District/South Beach","label":[37.79244,-122.3982]},"geometry":{"type":"Polygon","coordinates":[[[-122.39275,37.77885],[-122.40047,37.78503],[-122.40271,37.78326],[-122.40583,37.78574],[-122.40745,37.7846],[-122.4077,37.7847],[-122.40879,37.79016],[-122.40715,37.79037],[-122.40754,37.79225],[-122.40442,37.79264],[-122.40461,37.79356],[-122.40015,37.79413],[-122.40086,37.79765],[-122.40204,37.79751],[-122.40316,37.8031],[-122.4048,37.8029],[-122.40517,37.80476],[-122.40227,37.80513],[-122.40059,37.80602],[-122.40084,37.80343],[-122.39851,37.8046],[-122.39823,37.80425],[-122.39997,37.80323],[-122.3996,37.80281],[-122.39782,37.80381],[-122.39751,37.80348],[-122.39962,37.80228],[-122.39941,37.80182],[-122.3971,37.80302],[-122.39614,37.80195],[-122.39838,37.80067],[-122.39799,37.80023],[-122.39576,37.80147],[-122.39544,37.80116],[-122.3976,37.7999],[-122.39726,37.79944],[-122.3969,37.79963],[-122.39725,37.7994],[-122.39707,37.7992],[-122.39658,37.79883],[-122.39434,37.80016],[-122.39657,37.79865],[-122.39584,37.79787],[-122.39381,37.79894],[-122.39356,37.79863],[-122.39549,37.79747],[-122.39513,37.79749],[-122.39502,37.79712],[-122.39321,37.79825],[-122.39292,37.79798],[-122.3948,37.79671],[-122.39374,37.79713],[-122.39435,37.79623],[-122.39315,37.79694],[-122.39381,37.79643],[-122.393,37.79556],[-122.39261,37.79603],[-122.39251,37.79579],[-122.39159,37.79621],[-122.3912,37.79578],[-122.39241,37.79482],[-122.39147,37.7951],[-122.39215,37.79475],[-122.39165,37.79455],[-122.39198,37.79387],[-122.38881,37.79098],[-122.38861,37.79031],[-122.38805,37.79051],[-122.38837,37.79031],[-122.38799,37.79001],[-122.38842,37.78993],[-122.38829,37.78975],[-122.38763,37.78982],[-122.38735,37.78931],[-122.38529,37.78976],[-122.38515,37.78922],[-122.38719,37.78877],[-122.38705,37.78823],[-122.38526,37.78852],[-122.38513,37.78812],[-122.38738,37.78772],[-122.38741,37.78724],[-122.38453,37.78739],[-122.38434,37.78573],[-122.38753,37.78547],[-122.38717,37.78346],[-122.38775,37.78325],[-122.38763,37.78282],[-122.38807,37.78245],[-122.38811,37.78181],[-122.389,37.78171],[-122.39275,37.77885]]]}},{"type":"Feature","properties":{"name":"Glen Park","label":[37.73982,-122.43379]},"geometry":{"type":"Polygon","coordinates":[[[-122.42508,37.73785],[-122.42666,37.73642],[-122.42861,37.73506],[-122.43253,37.73312],[-122.43841,37.73434],[-122.44069,37.73505],[-122.44163,37.73587],[-122.44374,37.73574],[-122.44381,37.73639],[-122.44242,37.73744],[-122.4426,37.73955],[-122.44392,37.74009],[-122.44468,37.74079],[-122.44599,37.74118],[-122.44666,37.74244],[-122.44958,37.74307],[-122.45179,37.74557],[-122.4474,37.7466],[-122.44728,37.74606],[-122.44685,37.74612],[-122.44603,37.74513],[-122.44559,37.74391],[-122.44415,37.7433],[-122.44171,37.74463],[-122.44127,37.74523],[-122.44005,37.7453],[-122.43647,37.74289],[-122.43556,37.74155],[-122.43556,37.74316],[-122.43462,37.74322],[-122.43332,37.7433],[-122.43326,37.7419],[-122.43244,37.74177],[-122.42336,37.74229],[-122.42508,37.73785]]]}},{"type":"Feature","properties":{"name":"Golden Gate Park","label":[37.769,-122.48331]},"geometry":{"type":"Polygon","coordinates":[[[-122.44073,37.77271],[-122.4539,37.77105],[-122.45295,37.76637],[-122.45691,37.76587],[-122.45977,37.76632],[-122.5103,37.76407],[-122.51237,37.76359],[-122.51278,37.76436],[-122.51263,37.76563],[-122.51311,37.76724],[-122.51315,37.77076],[-122.51095,37.77134],[-122.46533,37.77342],[-122.45468,37.77476],[-122.45408,37.77193],[-122.44092,37.77363],[-122.44073,37.77271]]]}},{"type":"Feature","properties":{"name":"Haight Ashbury","label":[37.76736,-122.44676]},"geometry":{"type":"Polygon","coordinates":[[[-122.4539,37.77105],[-122.43247,37.77376],[-122.43157,37.76931],[-122.43834,37.76901],[-122.43882,37.7684],[-122.44014,37.76776],[-122.4406,37.76696],[-122.44194,37.76595],[-122.44257,37.76593],[-122.44401,37.76502],[-122.44466,37.76333],[-122.44569,37.76235],[-122.44639,37.76223],[-122.44638,37.76182],[-122.45196,37.76148],[-122.4539,37.77105]]]}},{"type":"Feature","properties":{"name":"Hayes Valley","label":[37.77448,-122.43068]},"geometry":{"type":"Polygon","coordinates":[[[-122.43157,37.76931],[-122.43247,37.77376],[-122.44073,37.77271],[-122.44149,37.77644],[-122.42335,37.77875],[-122.42354,37.77967],[-122.42036,37.78007],[-122.41933,37.77521],[-122.42668,37.76953],[-122.43157,37.76931]]]}},{"type":"Feature","properties":{"name":"Inner Richmond","label":[37.7799,-122.46548]},"geometry":{"type":"Polygon","coordinates":[[[-122.47171,37.77314],[-122.4726,37.78549],[-122.47235,37.78723],[-122.47091,37.78722],[-122.45948,37.78971],[-122.45837,37.77431],[-122.46533,37.77342],[-122.47171,37.77314]]]}},{"type":"Feature","properties":{"name":"Inner Sunset","label":[37.75748,-122.46522]},"geometry":{"type":"Polygon","coordinates":[[[-122.46333,37.75158],[-122.46341,37.7512],[-122.46428,37.75098],[-122.46419,37.75072],[-122.4649,37.75101],[-122.46647,37.75094],[-122.46634,37.74907],[-122.47613,37.74864],[-122.47726,37.76549],[-122.45977,37.76632],[-122.45691,37.76587],[-122.45295,37.76637],[-122.45196,37.76148],[-122.44678,37.76178],[-122.44653,37.7614],[-122.4464,37.75886],[-122.4473,37.75789],[-122.44792,37.75759],[-122.44854,37.75904],[-122.45093,37.75872],[-122.45283,37.7581],[-122.45387,37.75738],[-122.45645,37.75148],[-122.45899,37.75195],[-122.46147,37.75152],[-122.46336,37.75304],[-122.46446,37.7529],[-122.46428,37.75232],[-122.46333,37.75158]]]}},{"type":"Feature","properties":{"name":"Japantown","label":[37.78512,-122.43387]},"geometry":{"type":"Polygon","coordinates":[[[-122.44281,37.78297],[-122.44318,37.78483],[-122.42505,37.78713],[-122.4247,37.78542],[-122.44281,37.78297]]]}},{"type":"Feature","properties":{"name":"Lakeshore","label":[37.72474,-122.49109]},"geometry":{"type":"Polygon","coordinates":[[[-122.47134,37.71269],[-122.47133,37.70823],[-122.50278,37.70813],[-122.50361,37.71182],[-122.50399,37.71214],[-122.50604,37.71909],[-122.50612,37.72066],[-122.50805,37.72976],[-122.50803,37.73164],[-122.50841,37.73289],[-122.50827,37.73477],[-122.50854,37.7354],[-122.50203,37.73552],[-122.49861,37.73419],[-122.49656,37.73386],[-122.49811,37.73227],[-122.49819,37.73153],[-122.49723,37.72949],[-122.49636,37.72903],[-122.49353,37.72959],[-122.49176,37.72881],[-122.49097,37.72911],[-122.4899,37.73016],[-122.48921,37.73032],[-122.48661,37.72956],[-122.48618,37.73088],[-122.48193,37.73117],[-122.47497,37.73107],[-122.47537,37.72028],[-122.47263,37.71691],[-122.47134,37.71269]]]}},{"type":"Feature","properties":{"name":"Lincoln Park","label":[37.78519,-122.50154]},"geometry":{"type":"Polygon","coordinates":[[[-122.49339,37.78163],[-122.51012,37.78101],[-122.51078,37.78206],[-122.50748,37.78219],[-122.50978,37.78403],[-122.50985,37.78479],[-122.50912,37.78559],[-122.50796,37.78617],[-122.50605,37.78819],[-122.5027,37.78804],[-122.49958,37.7887],[-122.49655,37.78729],[-122.4948,37.78783],[-122.4947,37.78814],[-122.49374,37.78761],[-122.49339,37.78163]]]}},{"type":"Feature","properties":{"name":"Lone Mountain/USF","label":[37.777,-122.45008]},"geometry":{"type":"Polygon","coordinates":[[[-122.45408,37.77193],[-122.45468,37.77476],[-122.45837,37.77431],[-122.45888,37.78133],[-122.44279,37.78289],[-122.44151,37.7821],[-122.44096,37.77936],[-122.44205,37.77924],[-122.44092,37.77363],[-122.45408,37.77193]]]}},{"type":"Feature","properties":{"name":"Marina","label":[37.80228,-122.43698]},"geometry":{"type":"Polygon","coordinates":[[[-122.43676,37.79502],[-122.43695,37.79595],[-122.44673,37.79471],[-122.44782,37.80163],[-122.4488,37.80177],[-122.44956,37.80279],[-122.44939,37.80371],[-122.44824,37.80448],[-122.44849,37.80609],[-122.44815,37.80635],[-122.44813,37.80689],[-122.44718,37.80748],[-122.44095,37.8082],[-122.44003,37.80883],[-122.4404,37.80815],[-122.44181,37.80799],[-122.44149,37.80794],[-122.4414,37.80783],[-122.44156,37.80781],[-122.44232,37.80793],[-122.44245,37.80779],[-122.44235,37.80784],[-122.44203,37.80787],[-122.44201,37.80773],[-122.44269,37.8076],[-122.44278,37.80781],[-122.44273,37.80753],[-122.44288,37.80752],[-122.4429,37.80779],[-122.44329,37.8077],[-122.44311,37.80743],[-122.44336,37.8074],[-122.44331,37.8077],[-122.44391,37.80719],[-122.44526,37.80707],[-122.44462,37.80686],[-122.44523,37.80699],[-122.44527,37.80672],[-122.44556,37.80689],[-122.44546,37.80666],[-122.44558,37.80689],[-122.44638,37.80672],[-122.44598,37.80678],[-122.44572,37.80654],[-122.447,37.80653],[-122.44669,37.80602],[-122.44689,37.80598],[-122.44667,37.80592],[-122.44677,37.80541],[-122.44568,37.80578],[-122.44252,37.80595],[-122.44259,37.80658],[-122.44313,37.80651],[-122.44261,37.80649],[-122.44265,37.80636],[-122.44555,37.80606],[-122.44395,37.80636],[-122.44418,37.80678],[-122.4439,37.80681],[-122.44397,37.80648],[-122.44386,37.80647],[-122.44358,37.80655],[-122.44364,37.80686],[-122.44362,37.80694],[-122.44287,37.80714],[-122.44361,37.80686],[-122.44357,37.80664],[-122.44255,37.80672],[-122.44247,37.80713],[-122.44226,37.80677],[-122.44233,37.80719],[-122.44258,37.80718],[-122.44099,37.80747],[-122.44229,37.8071],[-122.44224,37.80684],[-122.43583,37.80757],[-122.43586,37.80769],[-122.43392,37.80795],[-122.43381,37.80791],[-122.43365,37.80818],[-122.43291,37.80793],[-122.43364,37.80817],[-122.43376,37.80787],[-122.43393,37.80793],[-122.43584,37.80768],[-122.43392,37.8079],[-122.43583,37.80765],[-122.43566,37.80726],[-122.4336,37.80762],[-122.43566,37.80725],[-122.43558,37.8069],[-122.43308,37.80731],[-122.43442,37.80704],[-122.43405,37.80673],[-122.43293,37.80695],[-122.43405,37.80672],[-122.43399,37.80643],[-122.43287,37.80665],[-122.43399,37.80642],[-122.43394,37.80613],[-122.43281,37.80634],[-122.43394,37.80612],[-122.43387,37.80582],[-122.43279,37.80603],[-122.43387,37.80581],[-122.43356,37.80559],[-122.43273,37.80572],[-122.43239,37.80597],[-122.43264,37.80588],[-122.43239,37.80607],[-122.43252,37.80658],[-122.4323,37.80608],[-122.43237,37.80597],[-122.43217,37.80608],[-122.43261,37.80851],[-122.43234,37.80851],[-122.43208,37.80722],[-122.43139,37.80731],[-122.43173,37.80902],[-122.43134,37.80906],[-122.43092,37.80732],[-122.4303,37.80746],[-122.43062,37.80917],[-122.43011,37.80922],[-122.42984,37.80783],[-122.42824,37.80841],[-122.427,37.80811],[-122.42804,37.8087],[-122.4273,37.80877],[-122.42749,37.80868],[-122.42659,37.80807],[-122.42549,37.80601],[-122.42371,37.79668],[-122.43676,37.79502]]]}},{"type":"Feature","properties":{"name":"McLaren Park","label":[37.71735,-122.41756]},"geometry":{"type":"Polygon","coordinates":[[[-122.40727,37.71782],[-122.40826,37.71809],[-122.40875,37.71688],[-122.40802,37.71651],[-122.41036,37.71669],[-122.41132,37.71437],[-122.41566,37.71549],[-122.41621,37.71453],[-122.41595,37.71382],[-122.41529,37.7135],[-122.41563,37.71273],[-122.42148,37.71425],[-122.42217,37.71364],[-122.42375,37.71408],[-122.42424,37.71275],[-122.42262,37.71226],[-122.42319,37.71113],[-122.42296,37.71084],[-122.42437,37.71062],[-122.42659,37.71161],[-122.42555,37.71452],[-122.42731,37.71507],[-122.42719,37.71575],[-122.42614,37.71843],[-122.42639,37.71856],[-122.42434,37.72195],[-122.42477,37.72217],[-122.42381,37.72369],[-122.41987,37.72471],[-122.41938,37.7235],[-122.41839,37.72377],[-122.41791,37.72263],[-122.41692,37.72282],[-122.41655,37.72196],[-122.41556,37.72223],[-122.41592,37.72309],[-122.41297,37.72386],[-122.41099,37.71907],[-122.40704,37.72009],[-122.40667,37.71921],[-122.40727,37.71782]]]}},{"type":"Feature","properties":{"name":"Mission","label":[37.76244,-122.41591]},"geometry":{"type":"Polygon","coordinates":[[[-122.4247,37.74784],[-122.42659,37.76788],[-122.42695,37.76918],[-122.4187,37.77564],[-122.41093,37.76941],[-122.40974,37.77035],[-122.40801,37.76924],[-122.407,37.77005],[-122.40621,37.76946],[-122.40499,37.76971],[-122.4045,37.76466],[-122.40509,37.76463],[-122.4052,37.76348],[-122.40628,37.76139],[-122.40649,37.76025],[-122.4059,37.75893],[-122.40377,37.75714],[-122.40331,37.75617],[-122.40298,37.75275],[-122.40378,37.74943],[-122.40808,37.74841],[-122.4247,37.74784]]]}},{"type":"Feature","properties":{"name":"Mission Bay","label":[37.77388,-122.38746]},"geometry":{"type":"Polygon","coordinates":[[[-122.3986,37.77045],[-122.39837,37.77001],[-122.39487,37.7731],[-122.39443,37.77318],[-122.39494,37.77278],[-122.39477,37.77262],[-122.38982,37.77659],[-122.38754,37.77674],[-122.38708,37.7761],[-122.38499,37.77632],[-122.38488,37.77533],[-122.387,37.77508],[-122.38692,37.77433],[-122.38181,37.77462],[-122.38146,37.77192],[-122.38473,37.77336],[-122.38676,37.77327],[-122.38638,37.77146],[-122.38584,37.77069],[-122.38555,37.77215],[-122.38568,37.77144],[-122.38529,37.77163],[-122.38572,37.77059],[-122.38316,37.76971],[-122.38338,37.76933],[-122.38557,37.77018],[-122.38495,37.76873],[-122.3853,37.76732],[-122.38582,37.76726],[-122.38761,37.76448],[-122.38792,37.76438],[-122.38816,37.76696],[-122.39447,37.76658],[-122.39351,37.76559],[-122.39385,37.76531],[-122.4045,37.76466],[-122.40499,37.76971],[-122.40388,37.77006],[-122.39962,37.77343],[-122.40098,37.77481],[-122.39876,37.77657],[-122.39721,37.77533],[-122.38939,37.78151],[-122.38811,37.78181],[-122.38807,37.78245],[-122.38763,37.78282],[-122.38473,37.78293],[-122.38471,37.78253],[-122.38779,37.78227],[-122.38775,37.7818],[-122.38486,37.7818],[-122.38763,37.78145],[-122.38758,37.78096],[-122.38482,37.78125],[-122.38479,37.78098],[-122.38758,37.78095],[-122.38753,37.78049],[-122.38482,37.78076],[-122.3848,37.78053],[-122.38754,37.78046],[-122.38749,37.78005],[-122.38478,37.78031],[-122.38476,37.78008],[-122.3875,37.78002],[-122.38745,37.77966],[-122.38478,37.7799],[-122.38476,37.77969],[-122.38746,37.77963],[-122.38742,37.77929],[-122.38475,37.77954],[-122.38473,37.77933],[-122.38742,37.77926],[-122.38738,37.77893],[-122.38478,37.77916],[-122.38739,37.7789],[-122.38735,37.77861],[-122.38513,37.77882],[-122.38735,37.77859],[-122.38734,37.77836],[-122.38534,37.77848],[-122.38533,37.77841],[-122.38744,37.77832],[-122.38698,37.77817],[-122.38802,37.77791],[-122.38764,37.7782],[-122.39027,37.7772],[-122.3986,37.77045]],[[-122.39499,37.77275],[-122.3957,37.77218],[-122.39479,37.77261],[-122.39499,37.77275]],[[-122.39657,37.7715],[-122.3966,37.77146],[-122.3956,37.77207],[-122.39657,37.7715]]]}},{"type":"Feature","properties":{"name":"Nob Hill","label":[37.79263,-122.4142]},"geometry":{"type":"Polygon","coordinates":[[[-122.42167,37.78661],[-122.4228,37.79216],[-122.41611,37.79301],[-122.41722,37.79847],[-122.41228,37.7991],[-122.41136,37.79453],[-122.40972,37.79474],[-122.40917,37.79204],[-122.40754,37.79225],[-122.40715,37.79037],[-122.40879,37.79016],[-122.4084,37.78829],[-122.42167,37.78661]]]}},{"type":"Feature","properties":{"name":"Noe Valley","label":[37.74891,-122.43435]},"geometry":{"type":"Polygon","coordinates":[[[-122.43244,37.74177],[-122.43326,37.7419],[-122.43332,37.7433],[-122.43462,37.74322],[-122.43556,37.74316],[-122.43556,37.74155],[-122.43647,37.74289],[-122.44005,37.7453],[-122.44127,37.74523],[-122.44171,37.74463],[-122.44263,37.74435],[-122.44289,37.74384],[-122.4439,37.7433],[-122.44541,37.74377],[-122.44603,37.74513],[-122.44685,37.74612],[-122.44728,37.74606],[-122.4474,37.7466],[-122.44429,37.74731],[-122.44427,37.74838],[-122.44355,37.74944],[-122.44285,37.75237],[-122.44253,37.75238],[-122.44035,37.75523],[-122.43777,37.75554],[-122.4378,37.75589],[-122.42553,37.75664],[-122.4247,37.74784],[-122.42257,37.748],[-122.42229,37.74557],[-122.42336,37.74229],[-122.43244,37.74177]]]}},{"type":"Feature","properties":{"name":"North Beach","label":[37.80393,-122.41022]},"geometry":{"type":"Polygon","coordinates":[[[-122.40204,37.79751],[-122.40551,37.79707],[-122.41682,37.80489],[-122.41689,37.80521],[-122.41872,37.80593],[-122.41922,37.80845],[-122.41789,37.80862],[-122.41792,37.80882],[-122.41995,37.8089],[-122.41994,37.80913],[-122.41831,37.80914],[-122.41893,37.80945],[-122.4179,37.80903],[-122.41734,37.80814],[-122.41635,37.80826],[-122.41634,37.80848],[-122.41718,37.80853],[-122.41615,37.8085],[-122.41619,37.80885],[-122.41743,37.80893],[-122.41741,37.80917],[-122.4206,37.81127],[-122.42035,37.81151],[-122.41985,37.81132],[-122.41992,37.81157],[-122.41972,37.81113],[-122.41899,37.81084],[-122.41947,37.81138],[-122.41885,37.81147],[-122.41535,37.80916],[-122.41515,37.80923],[-122.41537,37.80941],[-122.41489,37.80924],[-122.41518,37.80948],[-122.41436,37.80902],[-122.41288,37.80896],[-122.41275,37.80897],[-122.41304,37.80908],[-122.41335,37.8091],[-122.41349,37.80917],[-122.41331,37.80941],[-122.4125,37.80907],[-122.41257,37.80943],[-122.4121,37.80928],[-122.41225,37.8096],[-122.41189,37.80939],[-122.41286,37.81052],[-122.41151,37.81124],[-122.41269,37.81056],[-122.41125,37.80892],[-122.41126,37.80915],[-122.41055,37.80882],[-122.41044,37.80933],[-122.41049,37.80881],[-122.4104,37.80931],[-122.41063,37.80972],[-122.41106,37.80943],[-122.41119,37.80968],[-122.41064,37.80973],[-122.4109,37.81019],[-122.41171,37.80974],[-122.41188,37.81003],[-122.41091,37.8102],[-122.41122,37.81075],[-122.41201,37.81028],[-122.41212,37.81046],[-122.41122,37.81076],[-122.41125,37.81112],[-122.41015,37.81151],[-122.40851,37.81128],[-122.40758,37.80879],[-122.40853,37.81127],[-122.41015,37.81149],[-122.41041,37.8114],[-122.41003,37.81142],[-122.40857,37.81122],[-122.41019,37.81132],[-122.41005,37.81087],[-122.40856,37.81066],[-122.41005,37.81086],[-122.41013,37.81036],[-122.40836,37.81012],[-122.41013,37.81035],[-122.41008,37.80992],[-122.40822,37.80979],[-122.40826,37.80956],[-122.41006,37.80989],[-122.40979,37.80941],[-122.40978,37.80959],[-122.40804,37.80926],[-122.40963,37.80946],[-122.40965,37.80909],[-122.40787,37.80885],[-122.40956,37.80905],[-122.40939,37.80872],[-122.40825,37.80851],[-122.40823,37.80828],[-122.40807,37.80847],[-122.40805,37.8082],[-122.40789,37.80842],[-122.40793,37.80815],[-122.40779,37.80839],[-122.40791,37.80811],[-122.40786,37.80809],[-122.40761,37.8084],[-122.40749,37.80793],[-122.40664,37.80782],[-122.40682,37.81],[-122.40618,37.81007],[-122.4059,37.80716],[-122.40532,37.80687],[-122.4044,37.80885],[-122.40393,37.80876],[-122.40472,37.80697],[-122.40396,37.80658],[-122.4027,37.80802],[-122.40234,37.80778],[-122.40342,37.80647],[-122.4028,37.80602],[-122.40091,37.80764],[-122.4004,37.80726],[-122.40059,37.80602],[-122.40227,37.80513],[-122.40517,37.80476],[-122.4048,37.8029],[-122.40316,37.8031],[-122.40204,37.79751]]]}},{"type":"Feature","properties":{"name":"Oceanview/Merced/Ingleside","label":[37.7164,-122.46083]},"geometry":{"type":"Polygon","coordinates":[[[-122.46599,37.71015],[-122.46772,37.70928],[-122.46894,37.70823],[-122.47133,37.70823],[-122.47134,37.71269],[-122.47267,37.71725],[-122.47244,37.7216],[-122.46236,37.7217],[-122.4622,37.72529],[-122.45179,37.72305],[-122.44788,37.723],[-122.44884,37.71706],[-122.44963,37.71574],[-122.45228,37.71334],[-122.4545,37.71163],[-122.45634,37.71083],[-122.46599,37.71015]]]}},{"type":"Feature","properties":{"name":"Outer Mission","label":[37.7198,-122.44345]},"geometry":{"type":"Polygon","coordinates":[[[-122.45431,37.70825],[-122.46894,37.70823],[-122.46716,37.70963],[-122.46477,37.71048],[-122.45731,37.71065],[-122.45503,37.71132],[-122.45228,37.71334],[-122.44921,37.71631],[-122.44869,37.7176],[-122.44812,37.722],[-122.44753,37.72401],[-122.44631,37.72598],[-122.44442,37.7278],[-122.42857,37.73508],[-122.42616,37.73397],[-122.43281,37.72732],[-122.4419,37.71531],[-122.44553,37.71189],[-122.4505,37.70954],[-122.45431,37.70825]]]}},{"type":"Feature","properties":{"name":"Outer Richmond","label":[37.77887,-122.49332]},"geometry":{"type":"Polygon","coordinates":[[[-122.51095,37.77134],[-122.51315,37.77076],[-122.51312,37.77599],[-122.51351,37.7776],[-122.51463,37.77851],[-122.51449,37.77924],[-122.51495,37.77972],[-122.51457,37.7799],[-122.51447,37.78043],[-122.51472,37.78113],[-122.51376,37.78148],[-122.5135,37.7827],[-122.5131,37.78277],[-122.51247,37.78374],[-122.51268,37.78412],[-122.51211,37.78379],[-122.51191,37.78433],[-122.50985,37.78479],[-122.50978,37.78403],[-122.50748,37.78219],[-122.51078,37.78206],[-122.51012,37.78101],[-122.5063,37.781],[-122.49339,37.78163],[-122.49349,37.7835],[-122.48715,37.78378],[-122.48729,37.78565],[-122.47258,37.78632],[-122.47171,37.77314],[-122.51095,37.77134]]]}},{"type":"Feature","properties":{"name":"Pacific Heights","label":[37.79253,-122.4346]},"geometry":{"type":"Polygon","coordinates":[[[-122.44318,37.78483],[-122.44375,37.78765],[-122.4454,37.78744],[-122.44673,37.79471],[-122.43695,37.79595],[-122.43676,37.79502],[-122.42371,37.79668],[-122.42242,37.79036],[-122.42562,37.78995],[-122.42505,37.78713],[-122.44318,37.78483]]]}},{"type":"Feature","properties":{"name":"Portola","label":[37.72694,-122.40912]},"geometry":{"type":"Polygon","coordinates":[[[-122.39888,37.71865],[-122.39974,37.71618],[-122.40044,37.71916],[-122.40355,37.71834],[-122.40385,37.71883],[-122.4061,37.71984],[-122.40667,37.71921],[-122.40704,37.72009],[-122.41099,37.71907],[-122.41297,37.72386],[-122.41592,37.72309],[-122.41556,37.72223],[-122.41655,37.72196],[-122.41692,37.72282],[-122.41791,37.72263],[-122.41839,37.72377],[-122.41938,37.7235],[-122.41987,37.72471],[-122.41791,37.72522],[-122.4184,37.72642],[-122.41446,37.72746],[-122.41519,37.72922],[-122.41686,37.7288],[-122.41949,37.72905],[-122.41924,37.73206],[-122.41666,37.73201],[-122.41439,37.73242],[-122.4095,37.73504],[-122.40849,37.73629],[-122.40822,37.73761],[-122.40701,37.738],[-122.40655,37.73572],[-122.40466,37.73295],[-122.40221,37.7281],[-122.39888,37.71865]]]}},{"type":"Feature","properties":{"name":"Potrero Hill","label":[37.7586,-122.39339]},"geometry":{"type":"Polygon","coordinates":[[[-122.39641,37.75118],[-122.40261,37.75056],[-122.40286,37.74954],[-122.40378,37.74943],[-122.40298,37.75275],[-122.40331,37.75617],[-122.40377,37.75714],[-122.4059,37.75893],[-122.40649,37.76025],[-122.40628,37.76139],[-122.4052,37.76348],[-122.40509,37.76463],[-122.39385,37.76531],[-122.39351,37.76559],[-122.39447,37.76658],[-122.38816,37.76696],[-122.38792,37.76438],[-122.38662,37.76567],[-122.38582,37.76726],[-122.38536,37.76725],[-122.38652,37.76541],[-122.38661,37.7639],[-122.38724,37.76351],[-122.38631,37.7631],[-122.38518,37.76337],[-122.3851,37.76232],[-122.38429,37.76213],[-122.3843,37.76406],[-122.38413,37.76226],[-122.38343,37.7623],[-122.38374,37.76254],[-122.38391,37.76414],[-122.38358,37.76425],[-122.3833,37.76414],[-122.38311,37.76232],[-122.38175,37.76241],[-122.38169,37.76474],[-122.38117,37.76493],[-122.38103,37.76222],[-122.38331,37.76208],[-122.38187,37.76064],[-122.38176,37.7599],[-122.3795,37.76021],[-122.37981,37.76346],[-122.37953,37.76347],[-122.3792,37.75994],[-122.38174,37.75975],[-122.38126,37.75967],[-122.38147,37.75957],[-122.3812,37.75827],[-122.38141,37.75646],[-122.38076,37.75524],[-122.3841,37.75491],[-122.384,37.75462],[-122.38302,37.75459],[-122.38273,37.75343],[-122.38171,37.75319],[-122.39651,37.75231],[-122.39641,37.75118]]]}},{"type":"Feature","properties":{"name":"Presidio","label":[37.8001,-122.46423]},"geometry":{"type":"Polygon","coordinates":[[[-122.44815,37.80635],[-122.44849,37.80609],[-122.44824,37.80448],[-122.44939,37.80371],[-122.44956,37.80279],[-122.4488,37.80177],[-122.44782,37.80163],[-122.4463,37.79188],[-122.44943,37.79164],[-122.47091,37.78722],[-122.47555,37.78678],[-122.47985,37.7868],[-122.48415,37.78767],[-122.48401,37.78943],[-122.48594,37.79084],[-122.48359,37.79404],[-122.48208,37.79847],[-122.48193,37.79877],[-122.48155,37.79875],[-122.4802,37.80142],[-122.4799,37.8029],[-122.47873,37.80549],[-122.47841,37.80809],[-122.4779,37.80845],[-122.47798,37.81054],[-122.47769,37.81063],[-122.47774,37.81094],[-122.47647,37.81084],[-122.47605,37.80964],[-122.4748,37.80918],[-122.4706,37.8086],[-122.47003,37.80943],[-122.46992,37.80944],[-122.46945,37.80907],[-122.47005,37.80929],[-122.47054,37.80858],[-122.46879,37.807],[-122.46815,37.80698],[-122.46815,37.8067],[-122.46667,37.8058],[-122.46606,37.80642],[-122.46589,37.80631],[-122.46665,37.80579],[-122.46358,37.80488],[-122.45837,37.80549],[-122.45448,37.80647],[-122.45244,37.80627],[-122.44813,37.80689],[-122.44815,37.80635]]]}},{"type":"Feature","properties":{"name":"Presidio Heights","label":[37.78516,-122.4512]},"geometry":{"type":"Polygon","coordinates":[[[-122.44279,37.78289],[-122.45888,37.78133],[-122.45948,37.78971],[-122.44943,37.79164],[-122.4463,37.79188],[-122.4454,37.78744],[-122.44375,37.78765],[-122.44279,37.78289]]]}},{"type":"Feature","properties":{"name":"Russian Hill","label":[37.80064,-122.41852]},"geometry":{"type":"Polygon","coordinates":[[[-122.4228,37.79216],[-122.42549,37.80601],[-122.42626,37.80719],[-122.42682,37.80862],[-122.42663,37.80974],[-122.42587,37.81052],[-122.42488,37.8108],[-122.4243,37.81055],[-122.42561,37.81046],[-122.42649,37.80957],[-122.42652,37.80815],[-122.42578,37.80709],[-122.42466,37.80665],[-122.42371,37.80667],[-122.42154,37.80806],[-122.42179,37.80837],[-122.42132,37.80828],[-122.42159,37.80854],[-122.4213,37.8083],[-122.42105,37.80855],[-122.42284,37.81026],[-122.42091,37.8088],[-122.42076,37.80908],[-122.42036,37.809],[-122.42067,37.80896],[-122.42046,37.8083],[-122.41922,37.80845],[-122.41872,37.80593],[-122.41689,37.80521],[-122.41682,37.80489],[-122.41291,37.80218],[-122.41228,37.7991],[-122.41722,37.79847],[-122.41611,37.79301],[-122.4228,37.79216]]]}},{"type":"Feature","properties":{"name":"Seacliff","label":[37.78701,-122.48732]},"geometry":{"type":"Polygon","coordinates":[[[-122.47258,37.78632],[-122.48729,37.78565],[-122.48715,37.78378],[-122.49349,37.7835],[-122.49374,37.78761],[-122.49212,37.78788],[-122.48983,37.78948],[-122.48737,37.78943],[-122.48594,37.79084],[-122.48401,37.78943],[-122.48415,37.78767],[-122.47985,37.7868],[-122.47555,37.78678],[-122.47235,37.78723],[-122.47258,37.78632]]]}},{"type":"Feature","properties":{"name":"South of Market","label":[37.77771,-122.40516]},"geometry":{"type":"Polygon","coordinates":[[[-122.4187,37.77564],[-122.40606,37.78576],[-122.40271,37.78326],[-122.40047,37.78503],[-122.39275,37.77885],[-122.39721,37.77533],[-122.39876,37.77657],[-122.40098,37.77481],[-122.39962,37.77343],[-122.40439,37.76975],[-122.40621,37.76946],[-122.407,37.77005],[-122.40801,37.76924],[-122.40974,37.77035],[-122.41093,37.76941],[-122.4187,37.77564]]]}},{"type":"Feature","properties":{"name":"Sunset/Parkside","label":[37.74683,-122.4928]},"geometry":{"type":"Polygon","coordinates":[[[-122.50854,37.7354],[-122.50889,37.739],[-122.50872,37.74025],[-122.50925,37.74134],[-122.50905,37.74246],[-122.50968,37.74444],[-122.50934,37.74594],[-122.50983,37.74773],[-122.50971,37.74908],[-122.51043,37.75035],[-122.51054,37.7516],[-122.51103,37.75255],[-122.5113,37.75435],[-122.51113,37.7552],[-122.51195,37.75979],[-122.51186,37.76091],[-122.51247,37.76252],[-122.51237,37.76359],[-122.5103,37.76407],[-122.47726,37.76549],[-122.47497,37.73107],[-122.48193,37.73117],[-122.48618,37.73088],[-122.48661,37.72956],[-122.48921,37.73032],[-122.4899,37.73016],[-122.49097,37.72911],[-122.49176,37.72881],[-122.49353,37.72959],[-122.49636,37.72903],[-122.49723,37.72949],[-122.49819,37.73153],[-122.49811,37.73227],[-122.49656,37.73386],[-122.49861,37.73419],[-122.5009,37.73525],[-122.50256,37.73556],[-122.50854,37.7354]]]}},{"type":"Feature","properties":{"name":"Tenderloin","label":[37.77991,-122.41685]},"geometry":{"type":"Polygon","coordinates":[[[-122.41933,37.77521],[-122.42167,37.78661],[-122.4084,37.78829],[-122.4077,37.7847],[-122.40745,37.7846],[-122.41933,37.77521]]]}},{"type":"Feature","properties":{"name":"The Farallones","label":[37.69868,-123.00326]},"geometry":{"type":"MultiPolygon","coordinates":[[[[-123.01068,37.69964],[-123.01048,37.69925],[-123.00895,37.6984],[-123.00953,37.69758],[-123.01091,37.69758],[-123.01126,37.69655],[-123.01201,37.69682],[-123.01253,37.69749],[-123.01192,37.69797],[-123.01195,37.69829],[-123.01319,37.69822],[-123.01376,37.69943],[-123.01327,37.70033],[-123.01267,37.70007],[-123.01201,37.70026],[-123.01155,37.6998],[-123.01068,37.69964]]],[[[-123.03196,37.72755],[-123.03185,37.7273],[-123.0324,37.72691],[-123.03251,37.72739],[-123.03196,37.72755]]],[[[-123.09865,37.76363],[-123.099,37.76402],[-123.0975,37.76384],[-123.09865,37.76363]]],[[[-123.10044,37.76693],[-123.09955,37.76663],[-123.10061,37.76647],[-123.10096,37.76654],[-123.10044,37.76693]]],[[[-123.09854,37.76754],[-123.09836,37.76704],[-123.099,37.76695],[-123.09955,37.76754],[-123.09854,37.76754]]],[[[-123.10705,37.77114],[-123.10751,37.77175],[-123.1069,37.77201],[-123.1065,37.77114],[-123.10664,37.77075],[-123.10788,37.77038],[-123.10785,37.77077],[-123.10705,37.77114]]],[[[-123.00392,37.69389],[-123.00271,37.694],[-123.00256,37.69377],[-123.00409,37.69307],[-123.00452,37.69325],[-123.00392,37.69389]]],[[[-123.00178,37.70073],[-123.00111,37.70048],[-122.99989,37.69899],[-123.00004,37.69798],[-122.99946,37.69698],[-122.99992,37.69682],[-123.00053,37.69711],[-123.00024,37.69638],[-123.00068,37.69588],[-123.0007,37.6951],[-123.00345,37.69579],[-123.00365,37.6967],[-123.00417,37.6973],[-123.00507,37.69723],[-123.00533,37.69657],[-123.0059,37.69742],[-123.00818,37.69771],[-123.00812,37.69838],[-123.00671,37.69833],[-123.00645,37.69904],[-123.00558,37.69909],[-123.00538,37.69977],[-123.00489,37.69975],[-123.00523,37.70064],[-123.00451,37.7017],[-123.00382,37.70151],[-123.00388,37.70085],[-123.00316,37.70044],[-123.00178,37.70073]]],[[[-123.00411,37.70263],[-123.00408,37.70213],[-123.00454,37.70227],[-123.00411,37.70263]]],[[[-123.00518,37.70302],[-123.00546,37.70266],[-123.00564,37.70277],[-123.00558,37.70307],[-123.00518,37.70302]]],[[[-123.0027,37.70398],[-123.0027,37.7036],[-123.00368,37.70295],[-123.00385,37.70328],[-123.00342,37.70394],[-123.0027,37.70398]]]]}},{"type":"Feature","properties":{"name":"Treasure Island","label":[37.82018,-122.36927]},"geometry":{"type":"MultiPolygon","coordinates":[[[[-122.36058,37.8198],[-122.36364,37.82054],[-122.36426,37.81885],[-122.36476,37.8184],[-122.36505,37.81851],[-122.37105,37.81595],[-122.3698,37.8134],[-122.36756,37.81233],[-122.36672,37.81242],[-122.36402,37.81405],[-122.36207,37.81414],[-122.3595,37.81502],[-122.35891,37.81477],[-122.35928,37.81344],[-122.36106,37.81248],[-122.36117,37.81023],[-122.36072,37.8103],[-122.36024,37.81088],[-122.36055,37.8102],[-122.36115,37.81011],[-122.36097,37.80809],[-122.36169,37.80771],[-122.36209,37.807],[-122.36412,37.80755],[-122.36725,37.80739],[-122.36779,37.80788],[-122.3703,37.80863],[-122.37169,37.80949],[-122.37284,37.81087],[-122.37281,37.81123],[-122.37217,37.81135],[-122.37157,37.81304],[-122.37177,37.81357],[-122.37144,37.81356],[-122.37125,37.81444],[-122.37147,37.81526],[-122.3748,37.82024],[-122.3754,37.81961],[-122.37484,37.8203],[-122.37912,37.82678],[-122.37769,37.83044],[-122.37343,37.83231],[-122.37304,37.833],[-122.37259,37.83329],[-122.37313,37.83225],[-122.36862,37.83115],[-122.36284,37.82259],[-122.36358,37.82087],[-122.36046,37.82012],[-122.36058,37.8198]]],[[[-122.42439,37.82826],[-122.42186,37.82689],[-122.42192,37.82712],[-122.42061,37.82587],[-122.4207,37.82545],[-122.42111,37.8251],[-122.42226,37.82501],[-122.42407,37.826],[-122.42596,37.82801],[-122.42439,37.82826]]]]}},{"type":"Feature","properties":{"name":"Twin Peaks","label":[37.75216,-122.44949]},"geometry":{"type":"Polygon","coordinates":[[[-122.44695,37.75655],[-122.44595,37.75641],[-122.44503,37.75661],[-122.44438,37.7564],[-122.44511,37.75696],[-122.4447,37.75722],[-122.44319,37.75604],[-122.44222,37.75664],[-122.44218,37.75894],[-122.43917,37.75903],[-122.43886,37.75543],[-122.44035,37.75523],[-122.44253,37.75238],[-122.44285,37.75237],[-122.44443,37.74717],[-122.45179,37.74557],[-122.45393,37.74567],[-122.45633,37.74651],[-122.45885,37.74679],[-122.45924,37.74723],[-122.45871,37.74761],[-122.45866,37.74804],[-122.46035,37.74978],[-122.46147,37.75152],[-122.45899,37.75195],[-122.45645,37.75148],[-122.45609,37.7518],[-122.45603,37.75289],[-122.45403,37.75718],[-122.45283,37.7581],[-122.45093,37.75872],[-122.44854,37.75904],[-122.4483,37.75803],[-122.44695,37.75655]]]}},{"type":"Feature","properties":{"name":"Visitacion Valley","label":[37.71416,-122.40793]},"geometry":{"type":"Polygon","coordinates":[[[-122.42377,37.70833],[-122.42333,37.70931],[-122.42504,37.71054],[-122.42765,37.71162],[-122.42659,37.71161],[-122.42404,37.71056],[-122.42296,37.71084],[-122.42319,37.71113],[-122.42262,37.71226],[-122.42424,37.71275],[-122.42375,37.71408],[-122.42217,37.71364],[-122.42148,37.71425],[-122.41563,37.71273],[-122.41529,37.7135],[-122.41595,37.71382],[-122.41621,37.71453],[-122.41566,37.71549],[-122.41132,37.71437],[-122.41036,37.71669],[-122.40802,37.71651],[-122.40875,37.71688],[-122.40826,37.71809],[-122.40727,37.71782],[-122.40643,37.71975],[-122.4061,37.71984],[-122.40385,37.71883],[-122.40355,37.71834],[-122.40044,37.71916],[-122.39974,37.71618],[-122.39888,37.71865],[-122.3985,37.71654],[-122.39937,37.7146],[-122.40116,37.71273],[-122.40311,37.712],[-122.40482,37.70975],[-122.40543,37.70838],[-122.42377,37.70833]]]}},{"type":"Feature","properties":{"name":"West of Twin Peaks","label":[37.73539,-122.45818]},"geometry":{"type":"Polygon","coordinates":[[[-122.46236,37.7217],[-122.47244,37.7216],[-122.47267,37.71725],[-122.47537,37.72028],[-122.47486,37.72901],[-122.47613,37.74864],[-122.46634,37.74907],[-122.46647,37.75094],[-122.4649,37.75101],[-122.46419,37.75072],[-122.46428,37.75098],[-122.46341,37.7512],[-122.46333,37.75158],[-122.46442,37.75232],[-122.46446,37.7529],[-122.46336,37.75304],[-122.46147,37.75152],[-122.46035,37.74978],[-122.45866,37.74804],[-122.45871,37.74761],[-122.45924,37.74723],[-122.45878,37.74674],[-122.45633,37.74651],[-122.45393,37.74567],[-122.45179,37.74557],[-122.44958,37.74307],[-122.44666,37.74244],[-122.4459,37.74112],[-122.44468,37.74079],[-122.44392,37.74009],[-122.44272,37.73968],[-122.44242,37.73744],[-122.44381,37.73639],[-122.44374,37.73574],[-122.44163,37.73587],[-122.44069,37.73505],[-122.43863,37.73439],[-122.43253,37.73312],[-122.44379,37.72823],[-122.44631,37.72598],[-122.44788,37.723],[-122.45179,37.72305],[-122.4622,37.72529],[-122.46236,37.7217]]]}},{"type":"Feature","properties":{"name":"Western Addition","label":[37.78419,-122.42747]},"geometry":{"type":"Polygon","coordinates":[[[-122.44149,37.77644],[-122.44205,37.77924],[-122.44096,37.77936],[-122.44151,37.7821],[-122.44269,37.78264],[-122.44281,37.78297],[-122.4247,37.78542],[-122.42562,37.78995],[-122.42242,37.79036],[-122.42036,37.78007],[-122.42354,37.77967],[-122.42335,37.77875],[-122.44149,37.77644]]]}}]}